GSAT0201 (GALILEO 5)    
1 40128U 14050A   23269.44176039 -.00000038  00000+0  00000+0 0  9991
2 40128  49.9156 313.6823 1608122 141.2147 231.5219  1.85519146 59868
GSAT0202 (GALILEO 6)    
1 40129U 14050B   23270.77904778 -.00000048  00000+0  00000+0 0  9990
2 40129  49.9334 312.7008 1606018 142.0763 230.4165  1.85519815 62053
IRNSS-1C                
1 40269U 14061A   23271.58485649 -.00000173  00000+0  00000+0 0  9997
2 40269   4.0203 111.9697 0020113   5.3287 183.3359  1.00273663 32733
NAVSTAR 72 (USA 258)    
1 40294U 14068A   23267.76310661  .00000017  00000+0  00000+0 0  9994
2 40294  56.1958  69.6599 0049132  62.4733 298.0569  2.00572992 65223
COSMOS 2501             
1 40315U 14075A   23271.34789802  .00000000  00000+0  00000+0 0  9994
2 40315  63.6380 224.8229 0019611 210.4823 149.3764  2.13101211 68693
NAVSTAR 73 (USA 260)    
1 40534U 15013A   23270.39367100  .00000001  00000+0  00000+0 0  9998
2 40534  53.4546 245.3344 0081518  25.6536 334.7244  2.00553213 61892
GSAT0203 (GALILEO 7)    
1 40544U 15017A   23264.67372741 -.00000079  00000+0  00000+0 0  9990
2 40544  56.9063   8.8014 0003705 231.1064 128.8850  1.70476062 52823
GSAT0204 (GALILEO 8)    
1 40545U 15017B   23269.03348640 -.00000092  00000+0  00000+0 0  9992
2 40545  56.9128   8.6972 0004055 217.4748 142.5152  1.70475528 15285
IRNSS-1D                
1 40547U 15018A   23271.36942462 -.00000303  00000+0  00000+0 0  9991
2 40547  28.0259 257.2289 0019270 187.9047 166.5169  1.00275213 31029
BEIDOU-3S IGSO-1S       
1 40549U 15019A   23271.61413387 -.00000136  00000+0  00000+0 0  9995
2 40549  51.0560 307.2857 0040989 197.2361 175.5616  1.00250923 31122
NAVSTAR 74 (USA 262)    
1 40730U 15033A   23271.55271993 -.00000032  00000+0  00000+0 0  9996
2 40730  54.8255 307.7474 0086066  13.9447 346.3561  2.00553837 60086
BEIDOU-3S M2S           
1 40748U 15037A   23271.49528932 -.00000077  00000+0  00000+0 0  9999
2 40748  55.6478 335.9495 0012144 244.3468 115.5930  1.86233001 55638
BEIDOU-3S M1S           
1 40749U 15037B   23270.15457465 -.00000072  00000+0  00000+0 0  9999
2 40749  55.6517 335.9811 0004089 295.7498  64.2719  1.86232737 55615
GSAT0205 (GALILEO 9)    
1 40889U 15045A   23271.14775515  .00000008  00000+0  00000+0 0  9990
2 40889  55.3544 249.0382 0003864   1.3790 358.5876  1.70473076 50086
GSAT0206 (GALILEO 10)   
1 40890U 15045B   23271.36843500  .00000006  00000+0  00000+0 0  9994
2 40890  55.3511 249.0277 0002556 333.6776  26.2736  1.70473092 50113
BEIDOU-3S IGSO-2S       
1 40938U 15053A   23271.35615593 -.00000127  00000+0  00000+0 0  9999
2 40938  50.7737 270.4646 0047776 194.8041 126.3625  1.00277363 29399
NAVSTAR 75 (USA 265)    
1 41019U 15062A   23271.60451997 -.00000010  00000+0  00000+0 0  9995
2 41019  56.1826  69.3597 0090194 221.1636 138.1694  2.00562152 57926
GSAT-15                 
1 41028U 15065A   23271.50900884 -.00000272  00000+0  00000+0 0  9991
2 41028   0.0181 170.1322 0002190   6.9932 106.6461  1.00269763 28844
GSAT0209 (GALILEO 12)   
1 41174U 15079A   23270.95359405  .00000043  00000+0  00000+0 0  9998
2 41174  55.3090 128.5503 0002483 338.7365  21.3634  1.70474008 47840
GSAT0208 (GALILEO 11)   
1 41175U 15079B   23269.41345852  .00000040  00000+0  00000+0 0  9996
2 41175  55.3066 128.5907 0002029 344.6898  15.4097  1.70473923 48231
IRNSS-1E                
1 41241U 16003A   23271.36942462 -.00000283  00000+0  00000+0 0  9995
2 41241  31.0323  77.4308 0021057 176.6344 357.4512  1.00265278 28122
NAVSTAR 76 (USA 266)    
1 41328U 16007A   23271.19636425  .00000055  00000+0  00000+0 0  9991
2 41328  55.0250 128.9021 0071734 233.6483 125.7862  2.00574458 55928
COSMOS 2514             
1 41330U 16008A   23271.32935609 -.00000064  00000+0  00000+0 0  9997
2 41330  65.4958 346.8657 0012243 211.4572 148.5278  2.13102476 59468
IRNSS-1F                
1 41384U 16015A   23271.49673868  .00000148  00000+0  00000+0 0  9990
2 41384   2.9820 128.6727 0019185 176.7905 272.8173  1.00280098 27710
BEIDOU-2 IGSO-6         
1 41434U 16021A   23271.34589090 -.00000158  00000+0  00000+0 0  9992
2 41434  58.7902  48.0221 0048059 218.2536 321.9012  1.00277739 27529
IRNSS-1G                
1 41469U 16027A   23271.51614470 -.00000347  00000+0  00000+0 0  9996
2 41469   2.8710 130.2844 0002124   9.0183 183.0082  1.00266916 27222
GSAT0211 (GALILEO 14)   
1 41549U 16030A   23270.70754020  .00000011  00000+0  00000+0 0  9992
2 41549  55.4988 249.0288 0004076 316.5881  43.3485  1.70473175 45737
GSAT0210 (GALILEO 13)   
1 41550U 16030B   23269.23929929  .00000025  00000+0  00000+0 0  9997
2 41550  55.4990 249.0704 0004031 280.6831  79.2518  1.70473360 45700
COSMOS 2516             
1 41554U 16032A   23270.03562920  .00000006  00000+0  00000+0 0  9996
2 41554  63.8647 225.2757 0015319 214.1184 145.7595  2.13106309 57042
BEIDOU-2 G7             
1 41586U 16037A   23271.60953552 -.00000367  00000+0  00000+0 0  9996
2 41586   1.9274  68.7411 0007140 342.6200 285.7666  1.00272990 26834
EUTELSAT 117 WEST B     
1 41589U 16038B   23271.63422184 -.00000026  00000+0  00000+0 0  9997
2 41589   0.0278  34.4127 0000071 227.2535 216.8097  1.00270837 26718
GSAT0207 (GALILEO 15)   
1 41859U 16069A   23271.24742546  .00000042  00000+0  00000+0 0  9992
2 41859  54.9722 128.6082 0002227 312.3854  47.7062  1.70473901 42479
GSAT0212 (GALILEO 16)   
1 41860U 16069B   23271.10205669  .00000042  00000+0  00000+0 0  9999
2 41860  54.9699 128.6089 0001928  16.1443 343.9722  1.70474152 42722
GSAT0213 (GALILEO 17)   
1 41861U 16069C   23270.88171802  .00000042  00000+0  00000+0 0  9995
2 41861  54.9718 128.6211 0002100 270.8948  89.1910  1.70472850 42589
GSAT0214 (GALILEO 18)   
1 41862U 16069D   23269.26920957  .00000038  00000+0  00000+0 0  9994
2 41862  54.9693 128.6599 0001218 279.7101  80.3809  1.70472699 42681
SES-15                  
1 42709U 17026A   23271.62644889  .00000046  00000+0  00000+0 0  9998
2 42709   0.0451  21.6645 0000393 159.3965 282.4524  1.00268416 24192
QZS-2 (MICHIBIKI-2)     
1 42738U 17028A   23270.84146751 -.00000183  00000+0  00000+0 0  9993
2 42738  41.0078 257.5310 0748779 270.4027 281.5410  1.00258716 23188
QZS-3 (MICHIBIKI-3)     
1 42917U 17048A   23271.51562256 -.00000363  00000+0  00000+0 0  9991
2 42917   0.0641 151.6185 0001878  47.6199 120.4705  1.00270258 22304
COSMOS 2522             
1 42939U 17055A   23271.17096245  .00000001  00000+0  00000+0 0  9993
2 42939  64.0987 225.7687 0009093 243.0783 116.8014  2.13101905 46810
QZS-4 (MICHIBIKI-4)     
1 42965U 17062A   23271.53458894 -.00000330  00000+0  00000+0 0  9998
2 42965  40.6259 356.1387 0749564 269.7161  73.2784  1.00273460 21854
BEIDOU-3 M1             
1 43001U 17069A   23271.30587156  .00000045  00000+0  00000+0 0  9998
2 43001  55.8609  96.0254 0007249 298.7523  61.2398  1.86231344 40114
BEIDOU-3 M2             
1 43002U 17069B   23270.16875145  .00000053  00000+0  00000+0 0  9999
2 43002  55.8594  96.0994 0005602 334.2554  25.7867  1.86231053 40089
GSAT0215 (GALILEO 19)   
1 43055U 17079A   23269.17108508  .00000026  00000+0  00000+0 0  9999
2 43055  55.4758 248.8967 0003532 274.9326  85.0076  1.70473850 36025
GSAT0216 (GALILEO 20)   
1 43056U 17079B   23270.63613681  .00000012  00000+0  00000+0 0  9991
2 43056  55.4757 248.8562 0005092 279.6536  80.2578  1.70473970 36065
GSAT0217 (GALILEO 21)   
1 43057U 17079C   23270.85649842  .00000010  00000+0  00000+0 0  9992
2 43057  55.4735 248.8492 0004533 291.3722  68.5468  1.70473943 36057
GSAT0218 (GALILEO 22)   
1 43058U 17079D   23271.07654722  .00000008  00000+0  00000+0 0  9998
2 43058  55.4735 248.8407 0005547 275.8680  84.0345  1.70473915 36089
BEIDOU-3 M7             
1 43107U 18003A   23270.45642968 -.00000075  00000+0  00000+0 0  9996
2 43107  55.1047 336.6911 0002981  75.7686 284.3275  1.86232308 38844
BEIDOU-3 M8             
1 43108U 18003B   23270.39472306 -.00000075  00000+0  00000+0 0  9997
2 43108  55.0978 336.6801 0004454 247.1851 112.8309  1.86230778 38854
BEIDOU-3 M4             
1 43207U 18018A   23270.83694064  .00000049  00000+0  00000+0 0  9999
2 43207  55.8194  96.1393 0004325  19.1704 340.9135  1.86231260 38248
BEIDOU-3 M3             
1 43208U 18018B   23271.44054969  .00000043  00000+0  00000+0 0  9996
2 43208  55.8194  96.1235 0005178 317.1388  42.8853  1.86231205 38255
BEIDOU-3 M9             
1 43245U 18029A   23271.12634686 -.00000074  00000+0  00000+0 0  9999
2 43245  54.9979 334.3998 0001743 231.4093 128.6406  1.86232274 37405
BEIDOU-3 M10            
1 43246U 18029B   23271.59328956 -.00000077  00000+0  00000+0 0  9994
2 43246  54.9946 334.4123 0002863 345.6528  14.4048  1.86232763 37391
IRNSS-1I                
1 43286U 18035A   23268.08799584  .00000095  00000+0  00000+0 0  9993
2 43286  29.2971  89.8607 0020154 176.9888 183.7212  1.00277929 20094
COSMOS 2527             
1 43508U 18053A   23271.12974696  .00000075  00000+0  00000+0 0  9996
2 43508  65.1011 107.1514 0007457 214.4942 145.5374  2.13102358 41115
BEIDOU-2 IGSO-7         
1 43539U 18057A   23270.76423762 -.00000160  00000+0  00000+0 0  9992
2 43539  55.1184 171.6543 0064059 230.5008 353.1034  1.00276095 19187
GSAT0221 (GALILEO 25)   
1 43564U 18060A   23269.21661626 -.00000092  00000+0  00000+0 0  9999
2 43564  57.2875   8.6114 0003248 252.6639 107.3188  1.70476002 32200
GSAT0222 (GALILEO 26)   
1 43565U 18060B   23270.02131496 -.00000095  00000+0  00000+0 0  9991
2 43565  57.2912   8.5909 0003978 219.4814 140.5078  1.70475747 32268
GSAT0219 (GALILEO 23)   
1 43566U 18060C   23267.31070046 -.00000085  00000+0  00000+0 0  9992
2 43566  57.2900   8.6662 0002535 256.4137 103.5787  1.70476004 32195
GSAT0220 (GALILEO 24)   
1 43567U 18060D   23269.87746299 -.00000095  00000+0  00000+0 0  9997
2 43567  57.2899   8.5973 0002788 251.4482 108.5396  1.70475634 32228
BEIDOU-3 M5             
1 43581U 18062A   23271.27651487 -.00000014  00000+0  00000+0 0  9997
2 43581  54.1728 216.0965 0004529 287.0112  72.9053  1.86231726 35145
